0 FENGYUN 1C DEB
1 33670U 99025DFF 13281.60852483  .00025380  00000-0  19759-2 0  1729
2 33670 099.0917 206.8595 0137742 014.5122 342.2280 14.93956072315624
0 FENGYUN 1C DEB
1 33670U 99025DFF 13289.57819482  .00066427  00000-0  50168-2 0  1732
2 33670 099.0934 216.2084 0125923 350.9974 045.3538 14.95953776316821
0 FENGYUN 1C DEB
1 33670U 99025DFF 13294.58675770  .00073690  00000-0  53223-2 0  1745
2 33670 099.0672 221.9854 0134558 332.7812 027.7909 14.96712354317576
